{
  "type": "FeatureCollection",
  "features": [
    {
      "type": "Feature",
      "properties": {
        "norad_id": 36036,
        "name": "SMOS",
        "group": "resource",
        "lat": 27.3186096100844,
        "lon": 8.667381183370704,
        "alt_km": 757.9281936540146,
        "timestamp": "2025-12-25T09:48:51.943038+00:00",
        "meta_object_name": "SMOS",
        "meta_object_id": "2009-059A",
        "meta_epoch": "2025-12-25T02:26:16.778112",
        "meta_mean_motion": 14.3975208,
        "meta_eccentricity": 0.0001052,
        "meta_inclination": 98.4382,
        "meta_ra_of_asc_node": 183.967,
        "meta_arg_of_pericenter": 83.1567,
        "meta_mean_anomaly": 276.9741,
        "meta_ephemeris_type": 0,
        "meta_classification_type": "U",
        "meta_norad_cat_id": 36036,
        "meta_element_set_no": 999,
        "meta_rev_at_epoch": 84840,
        "meta_bstar": 0.00014263,
        "meta_mean_motion_dot": 4.03e-06,
        "meta_mean_motion_ddot": 0,
        "tle_line1": "1 36036U 09059A   25359.10158308  .00000403  00000+0  14263-3 0  9996",
        "tle_line2": "2 36036  98.4382 183.9670 0001052  83.1567 276.9741 14.39752080848405"
      },
      "geometry": {
        "type": "Point",
        "coordinates": [
          8.667381183370704,
          27.3186096100844
        ]
      }
    },
    {
      "type": "Feature",
      "properties": {
        "norad_id": 36110,
        "name": "YAOGAN-7",
        "group": "resource",
        "lat": -81.56003572346256,
        "lon": -10.931373978917945,
        "alt_km": 629.415833834686,
        "timestamp": "2025-12-25T09:48:51.943049+00:00",
        "meta_object_name": "YAOGAN-7",
        "meta_object_id": "2009-069A",
        "meta_epoch": "2025-12-25T02:06:25.735104",
        "meta_mean_motion": 14.77749912,
        "meta_eccentricity": 0.0023457,
        "meta_inclination": 98.0294,
        "meta_ra_of_asc_node": 240.8003,
        "meta_arg_of_pericenter": 239.1971,
        "meta_mean_anomaly": 120.693,
        "meta_ephemeris_type": 0,
        "meta_classification_type": "U",
        "meta_norad_cat_id": 36110,
        "meta_element_set_no": 999,
        "meta_rev_at_epoch": 86391,
        "meta_bstar": 9.9545e-05,
        "meta_mean_motion_dot": 6.64e-06,
        "meta_mean_motion_ddot": 0,
        "tle_line1": "1 36110U 09069A   25359.08779786  .00000664  00000+0  99545-4 0  9992",
        "tle_line2": "2 36110  98.0294 240.8003 0023457 239.1971 120.6930 14.77749912863914"
      },
      "geometry": {
        "type": "Point",
        "coordinates": [
          -10.931373978917945,
          -81.56003572346256
        ]
      }
    },
    {
      "type": "Feature",
      "properties": {
        "norad_id": 36605,
        "name": "TANDEM-X",
        "group": "resource",
        "lat": -57.586235659963116,
        "lon": 172.71843823791997,
        "alt_km": 516.5506727323518,
        "timestamp": "2025-12-25T09:48:51.943059+00:00",
        "meta_object_name": "TANDEM-X",
        "meta_object_id": "2010-030A",
        "meta_epoch": "2025-12-24T13:47:55.228992",
        "meta_mean_motion": 15.19151393,
        "meta_eccentricity": 0.00017737,
        "meta_inclination": 97.4454,
        "meta_ra_of_asc_node": 3.7821,
        "meta_arg_of_pericenter": 94.5594,
        "meta_mean_anomaly": 265.5843,
        "meta_ephemeris_type": 0,
        "meta_classification_type": "U",
        "meta_norad_cat_id": 36605,
        "meta_element_set_no": 999,
        "meta_rev_at_epoch": 86013,
        "meta_bstar": 4.5827e-05,
        "meta_mean_motion_dot": 8.95e-06,
        "meta_mean_motion_ddot": 0,
        "tle_line1": "1 36605U 10030A   25358.57494478  .00000895  00000+0  45827-4 0  9996",
        "tle_line2": "2 36605  97.4454   3.7821 0001773  94.5594 265.5843 15.19151393860139"
      },
      "geometry": {
        "type": "Point",
        "coordinates": [
          172.71843823791997,
          -57.586235659963116
        ]
      }
    },
    {
      "type": "Feature",
      "properties": {
        "norad_id": 36795,
        "name": "CARTOSAT-2B",
        "group": "resource",
        "lat": -58.73378022214597,
        "lon": -144.99171197570496,
        "alt_km": 648.664423950333,
        "timestamp": "2025-12-25T09:48:51.943069+00:00",
        "meta_object_name": "CARTOSAT-2B",
        "meta_object_id": "2010-035A",
        "meta_epoch": "2025-12-25T03:51:45.087264",
        "meta_mean_motion": 14.78742095,
        "meta_eccentricity": 0.0012546,
        "meta_inclination": 97.7831,
        "meta_ra_of_asc_node": 47.7862,
        "meta_arg_of_pericenter": 39.8312,
        "meta_mean_anomaly": 320.3818,
        "meta_ephemeris_type": 0,
        "meta_classification_type": "U",
        "meta_norad_cat_id": 36795,
        "meta_element_set_no": 999,
        "meta_rev_at_epoch": 83413,
        "meta_bstar": 0.00010082,
        "meta_mean_motion_dot": 6.91e-06,
        "meta_mean_motion_ddot": 0,
        "tle_line1": "1 36795U 10035A   25359.16093851  .00000691  00000+0  10082-3 0  9995",
        "tle_line2": "2 36795  97.7831  47.7862 0012546  39.8312 320.3818 14.78742095834136"
      },
      "geometry": {
        "type": "Point",
        "coordinates": [
          -144.99171197570496,
          -58.73378022214597
        ]
      }
    },
    {
      "type": "Feature",
      "properties": {
        "norad_id": 36834,
        "name": "YAOGAN-10",
        "group": "resource",
        "lat": -47.98949276086942,
        "lon": -169.7487774293244,
        "alt_km": 622.3793643200142,
        "timestamp": "2025-12-25T09:48:51.943079+00:00",
        "meta_object_name": "YAOGAN-10",
        "meta_object_id": "2010-038A",
        "meta_epoch": "2025-12-25T05:50:47.172192",
        "meta_mean_motion": 14.8465648,
        "meta_eccentricity": 0.0001446,
        "meta_inclination": 97.9132,
        "meta_ra_of_asc_node": 18.9702,
        "meta_arg_of_pericenter": 80.241,
        "meta_mean_anomaly": 345.1435,
        "meta_ephemeris_type": 0,
        "meta_classification_type": "U",
        "meta_norad_cat_id": 36834,
        "meta_element_set_no": 999,
        "meta_rev_at_epoch": 83139,
        "meta_bstar": 0.00034093,
        "meta_mean_motion_dot": 2.83e-05,
        "meta_mean_motion_ddot": 0,
        "tle_line1": "1 36834U 10038A   25359.24360153  .00002830  00000+0  34093-3 0  9998",
        "tle_line2": "2 36834  97.9132  18.9702 0001446  80.2410 345.1435 14.84656480831399"
      },
      "geometry": {
        "type": "Point",
        "coordinates": [
          -169.7487774293244,
          -47.98949276086942
        ]
      }
    },
    {
      "type": "Feature",
      "properties": {
        "norad_id": 37216,
        "name": "COSMO-SKYMED 4",
        "group": "resource",
        "lat": 38.284114453677866,
        "lon": 174.26473336232962,
        "alt_km": 619.0010450450027,
        "timestamp": "2025-12-25T09:48:51.943089+00:00",
        "meta_object_name": "COSMO-SKYMED 4",
        "meta_object_id": "2010-060A",
        "meta_epoch": "2025-12-25T04:46:46.557408",
        "meta_mean_motion": 14.82159069,
        "meta_eccentricity": 0.0001362,
        "meta_inclination": 97.8804,
        "meta_ra_of_asc_node": 180.3345,
        "meta_arg_of_pericenter": 82.2826,
        "meta_mean_anomaly": 277.8541,
        "meta_ephemeris_type": 0,
        "meta_classification_type": "U",
        "meta_norad_cat_id": 37216,
        "meta_element_set_no": 999,
        "meta_rev_at_epoch": 81879,
        "meta_bstar": 9.1953e-05,
        "meta_mean_motion_dot": 6.8e-06,
        "meta_mean_motion_ddot": 0,
        "tle_line1": "1 37216U 10060A   25359.19914997  .00000680  00000+0  91953-4 0  9993",
        "tle_line2": "2 37216  97.8804 180.3345 0001362  82.2826 277.8541 14.82159069818793"
      },
      "geometry": {
        "type": "Point",
        "coordinates": [
          174.26473336232962,
          38.284114453677866
        ]
      }
    },
    {
      "type": "Feature",
      "properties": {
        "norad_id": 37387,
        "name": "RESOURCESAT-2",
        "group": "resource",
        "lat": 52.275268083546294,
        "lon": -105.56458583571907,
        "alt_km": 817.0471225622096,
        "timestamp": "2025-12-25T09:48:51.943099+00:00",
        "meta_object_name": "RESOURCESAT-2",
        "meta_object_id": "2011-015A",
        "meta_epoch": "2025-12-25T02:27:49.398912",
        "meta_mean_motion": 14.2160197,
        "meta_eccentricity": 0.0005814,
        "meta_inclination": 98.786,
        "meta_ra_of_asc_node": 62.5981,
        "meta_arg_of_pericenter": 8.7512,
        "meta_mean_anomaly": 351.3765,
        "meta_ephemeris_type": 0,
        "meta_classification_type": "U",
        "meta_norad_cat_id": 37387,
        "meta_element_set_no": 999,
        "meta_rev_at_epoch": 76144,
        "meta_bstar": 8.1916e-05,
        "meta_mean_motion_dot": 1.35e-06,
        "meta_mean_motion_ddot": 0,
        "tle_line1": "1 37387U 11015A   25359.10265508  .00000135  00000+0  81916-4 0  9994",
        "tle_line2": "2 37387  98.7860  62.5981 0005814   8.7512 351.3765 14.21601970761443"
      },
      "geometry": {
        "type": "Point",
        "coordinates": [
          -105.56458583571907,
          52.275268083546294
        ]
      }
    }
  ]
}